{
"type": "FeatureCollection",
"name": "regbez10kmbuffer",
"crs": { "type": "name", "properties": { "name": "urn:ogc:def:crs:OGC:1.3:CRS84" } },
"features": [
{ "type": "Feature", "properties": { "fid": 1, "ART": "R", "GN": "Köln", "KN": "05300000", "STAND": "2023-06-12" }, "geometry": { "type": "MultiPolygon", "coordinates": [ [ [ [ 5.7863438308716, 51.02179882406007 ], [ 5.784566322075696, 51.02425560127169 ], [ 5.784520543389002, 51.024323488801954 ], [ 5.782958833153241, 51.026800252796264 ], [ 5.782924461575505, 51.026858750898072 ], [ 5.781544544684754, 51.029390020074977 ], [ 5.78151595282183, 51.029446816400856 ], [ 5.78023521649255, 51.032238375461489 ], [ 5.780212259195772, 51.032293717940128 ], [ 5.779087382923681, 51.035350507815387 ], [ 5.779069992325661, 51.035404556448213 ], [ 5.77813886802459, 51.038840556635499 ], [ 5.778123450373164, 51.038910398515085 ], [ 5.777828986810491, 51.040386852579822 ], [ 5.777185031569815, 51.044000416722454 ], [ 5.777039853755177, 51.044815224722555 ], [ 5.778319444815495, 51.062465586551404 ], [ 5.788214189027229, 51.078997220752406 ], [ 5.788636417726913, 51.079463941682391 ], [ 5.806568995155304, 51.093483202474928 ], [ 5.830613034090067, 51.103243771536931 ], [ 5.849578545729505, 51.106332522525406 ], [ 5.868463703438565, 51.11580657821262 ], [ 5.893969704753111, 51.12199078557402 ], [ 5.921258012295633, 51.123072047550593 ], [ 5.930504245466441, 51.121636337751525 ], [ 5.930953555790172, 51.121952289835683 ], [ 5.931875634931548, 51.122563432963688 ], [ 5.931969424015842, 51.122507685540043 ], [ 5.940254725706129, 51.126811210452779 ], [ 5.939789211015613, 51.127145177475015 ], [ 5.940486713038526, 51.127528119471137 ], [ 5.940968939239155, 51.127182166191488 ], [ 5.942097370010965, 51.127768256365215 ], [ 5.943602504865938, 51.128812443514192 ], [ 5.943699280608578, 51.128871666017936 ], [ 5.944161490904565, 51.12915450102237 ], [ 5.944422662416385, 51.129314306210134 ], [ 5.945382503678532, 51.129864299065503 ], [ 5.94854531525035, 51.132259028972129 ], [ 5.9679554970315, 51.14083783237713 ], [ 5.968056162593403, 51.140870803599299 ], [ 5.968455442518883, 51.141001579603625 ], [ 5.977705652117709, 51.145103301313256 ], [ 5.984742384965966, 51.146492229480131 ], [ 5.985698759540138, 51.147448628016647 ], [ 5.986368197297845, 51.148013550073003 ], [ 5.987626274964078, 51.14907517292059 ], [ 5.98819673659277, 51.149556522501712 ], [ 6.008750955457976, 51.16208919097128 ], [ 6.009634650435299, 51.162477374351681 ], [ 6.010859606473591, 51.163015456575721 ], [ 6.01586541385937, 51.164686878717248 ], [ 6.01717561707714, 51.166325047005238 ], [ 6.032090158365653, 51.177031535462028 ], [ 6.032333314480839, 51.177166951314213 ], [ 6.051157807978804, 51.185135473078581 ], [ 6.059988966285387, 51.200358981742944 ], [ 6.076486194343073, 51.213888116251624 ], [ 6.09868600076917, 51.223705045417596 ], [ 6.098721021407568, 51.223715991576498 ], [ 6.098927749354952, 51.223780399349025 ], [ 6.102458048480825, 51.224876736544005 ], [ 6.103293137459611, 51.225135834952148 ], [ 6.107047457870972, 51.22630200895393 ], [ 6.111082876679016, 51.227555786232685 ], [ 6.11593862619262, 51.229066412043927 ], [ 6.116124616549935, 51.229124105076245 ], [ 6.119009280480391, 51.230016302922678 ], [ 6.120107098160601, 51.230355202623656 ], [ 6.120641450196372, 51.230520176058498 ], [ 6.121759807983861, 51.230865441835732 ], [ 6.124099399767597, 51.231587340424056 ], [ 6.124971624624456, 51.231857018745394 ], [ 6.126941477645538, 51.232465920248622 ], [ 6.127537989233302, 51.232662034243603 ], [ 6.129086915727299, 51.233171102339831 ], [ 6.129186069631385, 51.233203751982579 ], [ 6.132437175127947, 51.234272539107472 ], [ 6.136151784951101, 51.235425985289275 ], [ 6.136236156609809, 51.235450681503195 ], [ 6.136618537540039, 51.235562596943282 ], [ 6.160997336058732, 51.240200158783267 ], [ 6.18647521802083, 51.240365743357849 ], [ 6.203193668609075, 51.237421391536984 ], [ 6.207413341433709, 51.239437808186061 ], [ 6.231986986281011, 51.245206064176358 ], [ 6.258174942701031, 51.246281908048566 ], [ 6.283742024377842, 51.242573837745802 ], [ 6.290019267992109, 51.240319266501466 ], [ 6.291398994210513, 51.240038930921486 ], [ 6.291467729155907, 51.240022913010222 ], [ 6.297925724344955, 51.238335848446638 ], [ 6.2979958187782, 51.238315495290664 ], [ 6.303501498746934, 51.236570512264628 ], [ 6.303574379956197, 51.236545407683167 ], [ 6.305795888742494, 51.235754201331972 ], [ 6.306431339555117, 51.235520325324877 ], [ 6.30674637895682, 51.235405836376714 ], [ 6.308613088188773, 51.234708406055269 ], [ 6.309803359363508, 51.234251379787288 ], [ 6.310025696647995, 51.234165730248627 ], [ 6.310051389177367, 51.234155800622595 ], [ 6.313310117656406, 51.232834626000503 ], [ 6.31336012526973, 51.232813377164803 ], [ 6.320735556936854, 51.22931906115523 ], [ 6.320777366270597, 51.229297043838081 ], [ 6.323556146435664, 51.22762113691995 ], [ 6.324096957237736, 51.227473464802337 ], [ 6.33021962885103, 51.226132514229548 ], [ 6.330402315247438, 51.226077283048902 ], [ 6.332531306801743, 51.225411708574562 ], [ 6.332606930907419, 51.225387277613599 ], [ 6.334182638114003, 51.224865771902927 ], [ 6.334253428853919, 51.224841776827098 ], [ 6.337213713303777, 51.2237924927311 ], [ 6.337285148914249, 51.223766041137253 ], [ 6.340008577903451, 51.222716166027965 ], [ 6.34008089279109, 51.222687164391061 ], [ 6.34255208824828, 51.221659668566041 ], [ 6.342625692500809, 51.22162795555289 ], [ 6.344739995743073, 51.22068854640542 ], [ 6.344807015592073, 51.220657848436794 ], [ 6.346898082602224, 51.219670420213838 ], [ 6.347755801046409, 51.219252969102648 ], [ 6.349440158245931, 51.218412710821831 ], [ 6.3495750836185, 51.218343729815075 ], [ 6.352172956720497, 51.216963308605386 ], [ 6.352290752174911, 51.216898269386803 ], [ 6.354820677263737, 51.215446674903568 ], [ 6.354869635379961, 51.215417487387612 ], [ 6.358199984510622, 51.213324875545517 ], [ 6.358237379533609, 51.213300110286198 ], [ 6.362579417351566, 51.210204918747912 ], [ 6.362610312300536, 51.210181196748522 ], [ 6.367437749947868, 51.206113289692894 ], [ 6.367462852205848, 51.206090015788945 ], [ 6.367699429506957, 51.205838901516543 ], [ 6.370828506198933, 51.204398408588098 ], [ 6.38816184283993, 51.188066334619386 ], [ 6.388992589326285, 51.18590758577114 ], [ 6.389002304613141, 51.185914743013846 ], [ 6.390066819912433, 51.185347046701537 ], [ 6.390022346472395, 51.185314282747349 ], [ 6.391537761003817, 51.184514177895963 ], [ 6.392211104655041, 51.184118723584128 ], [ 6.392109577214923, 51.184050802006169 ], [ 6.397602329305706, 51.180860073924563 ], [ 6.397623332924911, 51.180845967302552 ], [ 6.409020119076311, 51.171064048843292 ], [ 6.419075420371374, 51.166536415935738 ], [ 6.435622802837072, 51.152513974911962 ], [ 6.438400047954963, 51.147364539200595 ], [ 6.43928166343204, 51.147134132974529 ], [ 6.440927730532474, 51.14625950423406 ], [ 6.44108319153213, 51.146269693433467 ], [ 6.464857710280316, 51.145841921280258 ], [ 6.48761997178872, 51.141514791656441 ], [ 6.507774323207038, 51.133590610485449 ], [ 6.507890773895605, 51.13352998795304 ], [ 6.526499391269534, 51.120231663131534 ], [ 6.529938257063465, 51.115202090281237 ], [ 6.538609829562583, 51.115823090858903 ], [ 6.566178278699518, 51.112298706892979 ], [ 6.569225916044256, 51.111214922601718 ], [ 6.5706843725096, 51.111159674807432 ], [ 6.593120326425175, 51.106420457554933 ], [ 6.593598353224417, 51.106272989242527 ], [ 6.613239797634318, 51.098041730806585 ], [ 6.62878670312885, 51.086878543020553 ], [ 6.632180435007306, 51.082521382608121 ], [ 6.647078713996488, 51.082891077670126 ], [ 6.667196298107121, 51.079555866769077 ], [ 6.672316428431261, 51.090304120398145 ], [ 6.688141757923114, 51.104744980014502 ], [ 6.710261816099885, 51.115434990681919 ], [ 6.736540673473659, 51.121344780167426 ], [ 6.760381954993963, 51.121823992225949 ], [ 6.77164315675147, 51.124372797352208 ], [ 6.781263676835176, 51.124334579710087 ], [ 6.782322254271174, 51.125025796570277 ], [ 6.783276175620968, 51.125347081515343 ], [ 6.786612683175923, 51.127652707758649 ], [ 6.810504150938854, 51.136334795083307 ], [ 6.810658002373203, 51.136372307772675 ], [ 6.813028150748567, 51.136926234924012 ], [ 6.814781695783375, 51.137318503779753 ], [ 6.815297619474837, 51.137432805571798 ], [ 6.815790629488924, 51.137540972252367 ], [ 6.816091196230457, 51.1376069137172 ], [ 6.816189794689749, 51.137628504904413 ], [ 6.816885488568517, 51.13778056377113 ], [ 6.817585934596909, 51.13793365795506 ], [ 6.819594761996491, 51.13835611798909 ], [ 6.821005772900874, 51.138641285820384 ], [ 6.84922729610577, 51.14135402909875 ], [ 6.861301623041958, 51.140075793273674 ], [ 6.871160096392157, 51.139418245761711 ], [ 6.873796065399002, 51.139029142176021 ], [ 6.875698199419148, 51.138551668714598 ], [ 6.877380149876821, 51.138373602124936 ], [ 6.880405393184728, 51.137370048249927 ], [ 6.890836130844178, 51.134751570890806 ], [ 6.913234084529282, 51.137785500372694 ], [ 6.914437943641958, 51.13879690447294 ], [ 6.914974079493547, 51.139660260946293 ], [ 6.915163085877378, 51.139614056012284 ], [ 6.917268198458612, 51.143985138763696 ], [ 6.920118807033298, 51.14660424466885 ], [ 6.921249561907393, 51.148107178566747 ], [ 6.921378484062421, 51.148256097596708 ], [ 6.924870375015106, 51.151946958023174 ], [ 6.924991464753695, 51.152064499502565 ], [ 6.929186719827094, 51.155795801568829 ], [ 6.929325205703794, 51.155908939627636 ], [ 6.935138001104145, 51.160196022052013 ], [ 6.9353742574777, 51.160353584240504 ], [ 6.943673325538983, 51.16522912337966 ], [ 6.944912350238592, 51.165869649067382 ], [ 6.951345931013553, 51.168902388546435 ], [ 6.95271129473978, 51.16948785558963 ], [ 6.965602342547731, 51.173195837974134 ], [ 6.965789354004905, 51.173285835561636 ], [ 6.96683240809732, 51.173780270807214 ], [ 6.967119412429413, 51.173914270460472 ], [ 6.968999223312987, 51.174768475779821 ], [ 6.969116966959795, 51.174820537544072 ], [ 6.970774095619527, 51.175535964279625 ], [ 6.970884473056131, 51.175582482998763 ], [ 6.972905374186579, 51.176409694249983 ], [ 6.973025082600559, 51.176457268226677 ], [ 6.975232320070082, 51.177306736704708 ], [ 6.975353434454455, 51.177351853868778 ], [ 6.977630173045207, 51.178171983811396 ], [ 6.977752552866978, 51.178214587997317 ], [ 6.980103121550803, 51.179004497161799 ], [ 6.980226654455921, 51.179044541663558 ], [ 6.982778091713853, 51.179839718084381 ], [ 6.982918674453187, 51.179881801760558 ], [ 6.983740312269698, 51.180117297182669 ], [ 6.984395423042932, 51.180329136039603 ], [ 6.984526908163526, 51.180370523702777 ], [ 6.986176901861842, 51.180876715152479 ], [ 6.986313852313139, 51.18091764644489 ], [ 6.988889009040847, 51.181656294383274 ], [ 6.989193009330241, 51.181739884756276 ], [ 6.995197041438074, 51.183231850072737 ], [ 6.99536929128502, 51.183270221311751 ], [ 6.999497686612526, 51.184119963096308 ], [ 6.999577823320307, 51.184135121713688 ], [ 7.003425486158385, 51.184804827003667 ], [ 7.003499549471453, 51.184816613162212 ], [ 7.006189485400952, 51.185201460497524 ], [ 7.006525447062789, 51.185282639209497 ], [ 7.006639781265911, 51.185306504180019 ], [ 7.01302875919983, 51.186477136795581 ], [ 7.013100629465673, 51.186488511799396 ], [ 7.017717937554142, 51.187138710939166 ], [ 7.017793140972404, 51.187148003818749 ], [ 7.022141842268202, 51.18761614218699 ], [ 7.022220805804799, 51.187623396120131 ], [ 7.026201566240032, 51.187932355705193 ], [ 7.026284929966016, 51.187937644364418 ], [ 7.029883422783662, 51.188120232691169 ], [ 7.029970729242081, 51.188123557407295 ], [ 7.033082443596739, 51.188208149614567 ], [ 7.03317648697072, 51.188209683045578 ], [ 7.033399473231758, 51.188210407155957 ], [ 7.033654672273189, 51.188230666714887 ], [ 7.033735300416309, 51.188236119490583 ], [ 7.038354217217046, 51.188473130270829 ], [ 7.038427149316548, 51.188475687730872 ], [ 7.042184157633621, 51.188531647662401 ], [ 7.042364126357669, 51.188591449035854 ], [ 7.042422765967919, 51.188609712020074 ], [ 7.047453061127505, 51.19005700358364 ], [ 7.047509833745273, 51.190072028362138 ], [ 7.053266888947632, 51.191451746752357 ], [ 7.053322430711126, 51.191463705662827 ], [ 7.059737884644982, 51.192679339341957 ], [ 7.059792563618227, 51.192688319475039 ], [ 7.066606349181451, 51.193631772533571 ], [ 7.066660104859154, 51.193637853935108 ], [ 7.073234691077577, 51.194225308496314 ], [ 7.073290462338723, 51.194228979585738 ], [ 7.079545718515462, 51.194502821356295 ], [ 7.079603291066661, 51.194504078691075 ], [ 7.085541057826966, 51.194510699955359 ], [ 7.085600217374179, 51.194509540045232 ], [ 7.087638785358017, 51.194429191157809 ], [ 7.089907475843488, 51.194629251813147 ], [ 7.089971804395881, 51.194632399473491 ], [ 7.095847704262689, 51.1947988696854 ], [ 7.097313217927861, 51.194810289008693 ], [ 7.101691873458588, 51.194777517746004 ], [ 7.101785811063168, 51.194775378826336 ], [ 7.104654247072701, 51.194631316129225 ], [ 7.106454130850775, 51.195968668135016 ], [ 7.129266639869362, 51.205086204191652 ], [ 7.155377162465936, 51.209533037412498 ], [ 7.156280661216322, 51.209597984983461 ], [ 7.157462724687188, 51.209677995493237 ], [ 7.157678097948105, 51.209691670798001 ], [ 7.16033913422002, 51.209823086638799 ], [ 7.164572749349787, 51.210606517986051 ], [ 7.164631985512933, 51.210615179215189 ], [ 7.176747367923735, 51.211847201866597 ], [ 7.176803184526094, 51.211850447402767 ], [ 7.182781217994222, 51.211898197072976 ], [ 7.186833564472956, 51.213344399966644 ], [ 7.188395063578383, 51.213696183937586 ], [ 7.188630124928904, 51.213286755248767 ], [ 7.198350837359479, 51.215797242470217 ], [ 7.2056046384312, 51.216182291395924 ], [ 7.205245771670878, 51.217434499048863 ], [ 7.207504555463065, 51.23256054147911 ], [ 7.207520993246601, 51.2326047625887 ], [ 7.20779126192865, 51.233331795758758 ], [ 7.210653716723112, 51.239441594318649 ], [ 7.210697377262832, 51.239518387761613 ], [ 7.212952976212059, 51.242149048197589 ], [ 7.216929509147533, 51.249620398819388 ], [ 7.219686446583378, 51.252000442752077 ], [ 7.221278808761503, 51.257733468557078 ], [ 7.233029485355553, 51.272392235180298 ], [ 7.239363662465251, 51.276580527316149 ], [ 7.239443744651352, 51.276654796715228 ], [ 7.239553985691522, 51.276754159740499 ], [ 7.243357865665431, 51.279936200545905 ], [ 7.243815152958796, 51.280291777290351 ], [ 7.247303208896695, 51.282843884330234 ], [ 7.247373031573917, 51.282891982905895 ], [ 7.252387083501947, 51.286081045893638 ], [ 7.252421476681369, 51.286101244972265 ], [ 7.257747480802846, 51.288991653127191 ], [ 7.2577797153364, 51.289007803835197 ], [ 7.264969627953087, 51.292258980588848 ], [ 7.26500106860362, 51.292271767781749 ], [ 7.274240407931627, 51.295560112751694 ], [ 7.274271478721814, 51.295569695713588 ], [ 7.284552623134338, 51.298258594631939 ], [ 7.284581835371107, 51.298264934517846 ], [ 7.284882774843603, 51.298323981196233 ], [ 7.288677911496054, 51.300129931183733 ], [ 7.289093616425481, 51.300256882447755 ], [ 7.293051960650316, 51.30130280109892 ], [ 7.293404968244184, 51.301403056456451 ], [ 7.294482337231752, 51.301703711252244 ], [ 7.294534906240515, 51.301718123233691 ], [ 7.295542195571252, 51.301960787029138 ], [ 7.298109091979133, 51.302639019079443 ], [ 7.298148491804247, 51.302647881065248 ], [ 7.299186742502988, 51.302876925574658 ], [ 7.29964800110004, 51.302976698707482 ], [ 7.300000100205861, 51.30305234939599 ], [ 7.300641503947441, 51.303189230195166 ], [ 7.302153008789432, 51.303553351256951 ], [ 7.302207166314427, 51.303564659357612 ], [ 7.302540601993315, 51.303634089747966 ], [ 7.308513625028805, 51.304735132029805 ], [ 7.308622996008435, 51.304752741309599 ], [ 7.314453200862951, 51.305563247099229 ], [ 7.314478114592066, 51.305566170850184 ], [ 7.316750969639324, 51.305745991846791 ], [ 7.317330243454077, 51.305815261440209 ], [ 7.317389941232039, 51.305821993878141 ], [ 7.327248834803903, 51.306584889564206 ], [ 7.327311159552913, 51.306587536501752 ], [ 7.336011019636727, 51.306692952648824 ], [ 7.336074499404593, 51.306691798648238 ], [ 7.341785310969884, 51.306474030003294 ], [ 7.341872045531677, 51.306468985159441 ], [ 7.343987505178615, 51.306330129554674 ], [ 7.344284875925429, 51.30630838239216 ], [ 7.348510270393956, 51.305935577234003 ], [ 7.348542259574964, 51.305932268607165 ], [ 7.365658182761485, 51.303053891153198 ], [ 7.365683158344431, 51.303047985400617 ], [ 7.368235952144054, 51.302328523706315 ], [ 7.391009211692231, 51.302208282396251 ], [ 7.391094053175064, 51.302188622132171 ], [ 7.397622672121175, 51.302531403948478 ], [ 7.415533188369932, 51.299710584095166 ], [ 7.415815981586471, 51.300329731250294 ], [ 7.416284663242368, 51.300246046303172 ], [ 7.417860824457108, 51.299954839164847 ], [ 7.418236757577494, 51.299883038142553 ], [ 7.424949601482306, 51.298227474955183 ], [ 7.42628598099764, 51.298016987882036 ], [ 7.427124088216204, 51.297787948992152 ], [ 7.427066391867923, 51.297705406602148 ], [ 7.431465690834471, 51.296620379485702 ], [ 7.431645917373499, 51.296565253912348 ], [ 7.431987199234775, 51.296460306040466 ], [ 7.432691005963375, 51.296242718967612 ], [ 7.448823313166196, 51.289029801355277 ], [ 7.450016703900677, 51.288565196573757 ], [ 7.450056593177152, 51.288549004442906 ], [ 7.450287284438298, 51.288448103009969 ], [ 7.452473903006733, 51.287756534616626 ], [ 7.452591707737347, 51.287703125950344 ], [ 7.454643570798942, 51.28654267696146 ], [ 7.455147401310494, 51.286322297968667 ], [ 7.45518813868044, 51.286303133894712 ], [ 7.460964033415097, 51.283342995021769 ], [ 7.461054086552596, 51.283292786904958 ], [ 7.46572566242344, 51.280492888025542 ], [ 7.465804737525764, 51.280441951887447 ], [ 7.471698521305647, 51.276246922563452 ], [ 7.471756834504912, 51.276201000095021 ], [ 7.473685785883678, 51.274506150764431 ], [ 7.473907979276841, 51.274425771979693 ], [ 7.473997001958756, 51.274387872738714 ], [ 7.481801105509996, 51.270459945089996 ], [ 7.482776013075711, 51.270007891743631 ], [ 7.482968113671588, 51.269931289522759 ], [ 7.483286919079841, 51.269778326369192 ], [ 7.483576923983285, 51.269636515304931 ], [ 7.485145210545258, 51.268909303782657 ], [ 7.485247980566041, 51.268853273206872 ], [ 7.485715834552444, 51.268580059781286 ], [ 7.485985820840796, 51.268445516383657 ], [ 7.485968937842639, 51.268432253979213 ], [ 7.487517084415928, 51.267528165910257 ], [ 7.490709078856548, 51.26593044687651 ], [ 7.490730199523787, 51.265918357963997 ], [ 7.500287960288217, 51.259523119063196 ], [ 7.500304513663635, 51.259510149506937 ], [ 7.509273845372269, 51.251001237243564 ], [ 7.50928778991535, 51.250984967775047 ], [ 7.515207196856427, 51.242449388536542 ], [ 7.515217665409698, 51.242430049008249 ], [ 7.518249089813241, 51.235335289163416 ], [ 7.518256277037437, 51.235312630010625 ], [ 7.519240158263519, 51.23117327926272 ], [ 7.520871577929412, 51.228818021851026 ], [ 7.523286930689262, 51.21338759770245 ], [ 7.533082799728617, 51.210305840161332 ], [ 7.55430470455974, 51.196350084571328 ], [ 7.566766571724304, 51.17872017164936 ], [ 7.567179388709078, 51.175175426650448 ], [ 7.567488419808373, 51.174639795247536 ], [ 7.568084304985783, 51.168544358430658 ], [ 7.569495666191785, 51.167790655296159 ], [ 7.575051935129977, 51.162568487191571 ], [ 7.577730937771705, 51.162915475170138 ], [ 7.605058347627721, 51.161137597021181 ], [ 7.610201055734453, 51.159734224262877 ], [ 7.610912998529323, 51.159682869938131 ], [ 7.619317536792755, 51.157246359801022 ], [ 7.630250826144358, 51.154262516053848 ], [ 7.630973320124296, 51.153867087399611 ], [ 7.635497455083327, 51.152555372765541 ], [ 7.638564649604773, 51.152035867592375 ], [ 7.647938943603214, 51.148238973355596 ], [ 7.653103982734724, 51.146777118491045 ], [ 7.656867614962346, 51.144622280324846 ], [ 7.661836434397268, 51.142609462312052 ], [ 7.665309865864917, 51.139957428600638 ], [ 7.682805734385782, 51.142462518275067 ], [ 7.682901279193014, 51.142466785891529 ], [ 7.685714124773884, 51.142564640429654 ], [ 7.68643296604963, 51.142582559672867 ], [ 7.716339005591235, 51.140149835068563 ], [ 7.743276738163924, 51.131643794218377 ], [ 7.744071228253838, 51.131126809766656 ], [ 7.745751372098357, 51.130578602231054 ], [ 7.748251603135894, 51.129096311453182 ], [ 7.748347020684482, 51.129175892308389 ], [ 7.748993581439653, 51.128870575607408 ], [ 7.751932293605588, 51.126914085126657 ], [ 7.76001503031073, 51.122121589601115 ], [ 7.760780449480961, 51.121831028311597 ], [ 7.760809499900954, 51.121819175272243 ], [ 7.763902356763578, 51.120341223039034 ], [ 7.764048399991069, 51.120275794444716 ], [ 7.764071812603787, 51.120260245523966 ], [ 7.771419751097837, 51.11674876469548 ], [ 7.771444210788245, 51.116735161703517 ], [ 7.774477790240712, 51.114865573318497 ], [ 7.775439183804091, 51.114418485239852 ], [ 7.775562923424212, 51.114330930229968 ], [ 7.776191723908412, 51.113839768117771 ], [ 7.776865938908845, 51.113511141599147 ], [ 7.777195526988132, 51.113190573858184 ], [ 7.778005271149563, 51.112691499420094 ], [ 7.77840525987972, 51.112418360895035 ], [ 7.783894512368722, 51.108291041568449 ], [ 7.784611393351389, 51.107696538734473 ], [ 7.783914131226277, 51.10736509368197 ], [ 7.788083942600909, 51.10469766378597 ], [ 7.788516254098784, 51.104287390413006 ], [ 7.791688542587141, 51.099092011633104 ], [ 7.793226067724197, 51.097596080685371 ], [ 7.793624415838675, 51.097011659401332 ], [ 7.79305255705265, 51.096857933216576 ], [ 7.802450947511648, 51.081461656614223 ], [ 7.802525282272267, 51.081147906771406 ], [ 7.8024519239468, 51.074166673033069 ], [ 7.802858654959594, 51.073581546735234 ], [ 7.808732745329179, 51.069150102259258 ], [ 7.819195448325018, 51.052483267738729 ], [ 7.819333989548882, 51.052087209400888 ], [ 7.819913091460672, 51.047536772387701 ], [ 7.820490009036473, 51.045407336018528 ], [ 7.821290987131347, 51.04382795069629 ], [ 7.821274276606827, 51.042938560621877 ], [ 7.822091074835419, 51.040950039602606 ], [ 7.822100781162341, 51.040907903519603 ], [ 7.822931466070131, 51.035435440081379 ], [ 7.822933725071933, 51.035404899411084 ], [ 7.822942093342816, 51.03366570582854 ], [ 7.824805010636174, 51.028495618503754 ], [ 7.83658818232457, 51.024269224371814 ], [ 7.855005484864194, 51.011854836705055 ], [ 7.866728672479829, 50.996554442120292 ], [ 7.866750348136851, 50.996510097190217 ], [ 7.86787885296146, 50.993996018795677 ], [ 7.868254571820928, 50.993078439949514 ], [ 7.868310371083755, 50.992951571803331 ], [ 7.868651405123835, 50.992153534931234 ], [ 7.868862652450392, 50.991644393583215 ], [ 7.869174960176498, 50.990889088325581 ], [ 7.869371343523646, 50.990425950506264 ], [ 7.86947499034487, 50.988702244397572 ], [ 7.86963526433594, 50.988387817831146 ], [ 7.86974396887852, 50.988172388511437 ], [ 7.869850064204651, 50.987962126583895 ], [ 7.870939853790632, 50.985629650577657 ], [ 7.87103533621101, 50.985407770586832 ], [ 7.871838886735064, 50.983379402318278 ], [ 7.872331723531856, 50.982586683263143 ], [ 7.872399715715371, 50.98243642127818 ], [ 7.874294090814094, 50.977378090870538 ], [ 7.874351802741951, 50.97718455809428 ], [ 7.875423199798288, 50.971944166888093 ], [ 7.879349180788477, 50.9658391564328 ], [ 7.881363811582609, 50.948262033964753 ], [ 7.874696173951328, 50.931140564863732 ], [ 7.874521251048162, 50.930962094648194 ], [ 7.87310878574938, 50.925861981536301 ], [ 7.872936586207639, 50.925662912746645 ], [ 7.863293025134164, 50.911060168012746 ], [ 7.862623466889969, 50.910349011875965 ], [ 7.858771432733304, 50.906256842584369 ], [ 7.858458832962042, 50.905921940862974 ], [ 7.857389067812178, 50.904761054180071 ], [ 7.856339624355059, 50.903618465774834 ], [ 7.856164338101273, 50.903428469849381 ], [ 7.854590686254522, 50.901730313746597 ], [ 7.853949441868, 50.901038236607633 ], [ 7.849260868479974, 50.897928931855212 ], [ 7.846153971979374, 50.885459289065842 ], [ 7.848403049565828, 50.878279373227095 ], [ 7.84840250987702, 50.87826758609306 ], [ 7.848402055974766, 50.87825871320382 ], [ 7.852039855907912, 50.873746815783051 ], [ 7.856250954404825, 50.855570133774087 ], [ 7.851033382559256, 50.837490711752714 ], [ 7.850654468228615, 50.837058532549861 ], [ 7.849652671945772, 50.830533963254972 ], [ 7.838686633416781, 50.814445034478375 ], [ 7.82047579292496, 50.801231175857787 ], [ 7.798404724396927, 50.792785523497301 ], [ 7.79844054788855, 50.792736981222902 ], [ 7.797731565196052, 50.792527910325063 ], [ 7.796755288725739, 50.792154293836724 ], [ 7.795487291268135, 50.791825350922707 ], [ 7.785354675845609, 50.78963291917394 ], [ 7.784435790880029, 50.789472068045441 ], [ 7.784291780555375, 50.789800842805548 ], [ 7.771793170314165, 50.787433717408689 ], [ 7.767452629495908, 50.776837919597575 ], [ 7.767451424361311, 50.776829770702356 ], [ 7.767409892649671, 50.77637792694545 ], [ 7.767388302216433, 50.776233053179162 ], [ 7.766315521179524, 50.774061700434181 ], [ 7.765990541285893, 50.773268240545136 ], [ 7.765912894395965, 50.770513960177958 ], [ 7.765893712179851, 50.770464715008288 ], [ 7.765669877514669, 50.769891129166602 ], [ 7.76527679344029, 50.76888506622857 ], [ 7.763866989438771, 50.769105394316071 ], [ 7.756279397986261, 50.753743293067856 ], [ 7.756147959246311, 50.753595213935675 ], [ 7.747253877660817, 50.745361257207556 ], [ 7.747096852368039, 50.745240222312859 ], [ 7.746962990007764, 50.745137191641966 ], [ 7.737427606460345, 50.738851329036535 ], [ 7.737282672238881, 50.738769391040663 ], [ 7.7300932328652, 50.735107029997209 ], [ 7.729595512920205, 50.73487911575225 ], [ 7.729510254247461, 50.734841162754179 ], [ 7.724301731879974, 50.731102856624318 ], [ 7.7231479297553, 50.730389307040568 ], [ 7.722736710101106, 50.730136610464207 ], [ 7.722011173657847, 50.729693598331984 ], [ 7.711233975311564, 50.724215745327378 ], [ 7.71131490941961, 50.724145462658214 ], [ 7.711107048870627, 50.724049536288149 ], [ 7.71051090844434, 50.72384820072314 ], [ 7.709298899909508, 50.723232114032925 ], [ 7.708479160521176, 50.722887891685033 ], [ 7.702422161606944, 50.719554939912392 ], [ 7.674879637820788, 50.712520977185676 ], [ 7.668971148772727, 50.71232902150264 ], [ 7.66780242495301, 50.71079806270297 ], [ 7.667788383087518, 50.710784214051166 ], [ 7.649062287658528, 50.697480159430874 ], [ 7.648976871862891, 50.697435918001837 ], [ 7.643479270485998, 50.694804574660687 ], [ 7.64340443276639, 50.694771531501033 ], [ 7.643344133688498, 50.694744925594065 ], [ 7.639984517888792, 50.693492504353578 ], [ 7.639988469939523, 50.69348871726865 ], [ 7.639801184524142, 50.693410289069327 ], [ 7.635775800136609, 50.691819712554157 ], [ 7.634855189716025, 50.691476990884638 ], [ 7.634783986846172, 50.691553747815654 ], [ 7.633401645453761, 50.691038397845574 ], [ 7.633441131707441, 50.690995574563097 ], [ 7.633269842018047, 50.690932188477575 ], [ 7.632666117544299, 50.690764183763442 ], [ 7.631529020046163, 50.690340256319068 ], [ 7.630681685977357, 50.690077278561645 ], [ 7.629656346566832, 50.689665289738201 ], [ 7.628555870074497, 50.689313974431755 ], [ 7.628365269183603, 50.689553600278998 ], [ 7.62068399858151, 50.687307239159843 ], [ 7.62074588524931, 50.687222746912944 ], [ 7.620091948641796, 50.687030489595728 ], [ 7.617711783805538, 50.686357129985417 ], [ 7.616216244717116, 50.685950414240963 ], [ 7.615769711282525, 50.685870016353704 ], [ 7.61002780379796, 50.684190693602751 ], [ 7.609925635063068, 50.684171353687091 ], [ 7.604290922216219, 50.683803224857009 ], [ 7.594057112411867, 50.681960518966363 ], [ 7.571025061508334, 50.681672515613556 ], [ 7.570864719293771, 50.681683617604328 ], [ 7.568748215273448, 50.682041380398523 ], [ 7.561380877832601, 50.678578975238253 ], [ 7.534168918726674, 50.672904667954185 ], [ 7.534064676614458, 50.672894158630747 ], [ 7.532861158999217, 50.672829661941897 ], [ 7.508045030345868, 50.664432190976576 ], [ 7.483681181265588, 50.661809711869743 ], [ 7.462607002732613, 50.655353045024299 ], [ 7.454368348333897, 50.654630275056753 ], [ 7.453217970409299, 50.651465518285683 ], [ 7.448567073133052, 50.645940763834609 ], [ 7.448651169631905, 50.644864591283223 ], [ 7.44177999505556, 50.628143340289725 ], [ 7.44160370773487, 50.627884051256281 ], [ 7.441498612837051, 50.627729557331456 ], [ 7.440029739705748, 50.626230471523954 ], [ 7.439816264326179, 50.625656519320557 ], [ 7.439573470551539, 50.625317010198714 ], [ 7.437421388012687, 50.622513992939062 ], [ 7.437355843259993, 50.622434238973753 ], [ 7.428875592384952, 50.614845339358943 ], [ 7.427442409445627, 50.61338227762996 ], [ 7.426914349838752, 50.613090066840151 ], [ 7.426374600518638, 50.612606990592823 ], [ 7.424764602112734, 50.610966067585409 ], [ 7.424731236932046, 50.610941204240113 ], [ 7.424080750665192, 50.610553937059315 ], [ 7.423254316164133, 50.609814235359785 ], [ 7.422752803662878, 50.60947456393361 ], [ 7.415271567851234, 50.604958110357217 ], [ 7.414397207671779, 50.604487920708159 ], [ 7.414173671189487, 50.604655360507415 ], [ 7.410102414585948, 50.602231160444916 ], [ 7.409876984284864, 50.602124267958594 ], [ 7.400915397853534, 50.598382207454875 ], [ 7.400168972313871, 50.598109578341841 ], [ 7.397746727140863, 50.597415259631546 ], [ 7.395626350002205, 50.596569970714455 ], [ 7.395527906420043, 50.59653733647793 ], [ 7.395366985952171, 50.596488513950028 ], [ 7.371349659178806, 50.58601274027599 ], [ 7.340561674928652, 50.581089971184376 ], [ 7.340433882708565, 50.581084359827237 ], [ 7.336914597599401, 50.581194462955423 ], [ 7.336831629726736, 50.581169918423342 ], [ 7.328969076849502, 50.578369588134514 ], [ 7.328638093280793, 50.578289830185319 ], [ 7.324406902551582, 50.577346247138934 ], [ 7.323456484065025, 50.577151076130946 ], [ 7.322888021606416, 50.577044774519223 ], [ 7.321699825531768, 50.576693236187488 ], [ 7.320913900587274, 50.576532781894045 ], [ 7.314606153253388, 50.575473377563043 ], [ 7.311536811044448, 50.574574545631052 ], [ 7.310558031873684, 50.574395619754434 ], [ 7.308700523404285, 50.574069716059306 ], [ 7.307373957404469, 50.573846664024309 ], [ 7.307339785762955, 50.573928632775043 ], [ 7.302870396688874, 50.572868244216977 ], [ 7.301957628655445, 50.572729781001975 ], [ 7.301534303536815, 50.572666251819953 ], [ 7.301047279389196, 50.572593953334923 ], [ 7.296821078146747, 50.572127749273903 ], [ 7.294929801735847, 50.571860175290134 ], [ 7.291807576862865, 50.571136942113498 ], [ 7.291681052967847, 50.571117052083949 ], [ 7.283217632757832, 50.570421709230438 ], [ 7.26933137140206, 50.568412512691857 ], [ 7.268778897857961, 50.568379850728128 ], [ 7.267362083159442, 50.568360251039159 ], [ 7.262413208433849, 50.567530926856712 ], [ 7.262267511415957, 50.567525141851732 ], [ 7.238731281172352, 50.569037273812746 ], [ 7.226154169854281, 50.566851747787851 ], [ 7.226124567925057, 50.566849402620171 ], [ 7.225900380319136, 50.566831650597038 ], [ 7.225516074717122, 50.566820552151782 ], [ 7.214645685127032, 50.561848295159464 ], [ 7.212366699280324, 50.561333705393636 ], [ 7.194736813252103, 50.551681201811164 ], [ 7.167972197530127, 50.544729693820898 ], [ 7.155293070061828, 50.544207291594212 ], [ 7.154658050129849, 50.543971234343992 ], [ 7.153396548434742, 50.543304505889019 ], [ 7.152359312606131, 50.542798070461735 ], [ 7.149324277406791, 50.541622739998942 ], [ 7.149146576292122, 50.541535162145479 ], [ 7.146755290414517, 50.539951609552283 ], [ 7.146597462075251, 50.53987871069566 ], [ 7.121695674765524, 50.531795165479679 ], [ 7.099901175702403, 50.52956429053048 ], [ 7.099953552305759, 50.529152705216745 ], [ 7.099864015606116, 50.529148100941072 ], [ 7.099845065558094, 50.529146833224907 ], [ 7.095899631286654, 50.529154682813648 ], [ 7.094089744201008, 50.528969417247829 ], [ 7.093014744664063, 50.528967101687762 ], [ 7.09301371417448, 50.529160424452634 ], [ 7.080482638992084, 50.529185355482753 ], [ 7.0797757524385, 50.529235490366126 ], [ 7.079160931565098, 50.529276343898225 ], [ 7.077917295182248, 50.529364551361653 ], [ 7.076684176571158, 50.529457544730278 ], [ 7.075792732770843, 50.529524289140873 ], [ 7.074414540878219, 50.529634351001398 ], [ 7.074101673082946, 50.529660899919925 ], [ 7.070055978558483, 50.530144208289805 ], [ 7.069469719738094, 50.529782224971456 ], [ 7.069433511939992, 50.529759872140673 ], [ 7.068350932438497, 50.528981524392229 ], [ 7.068356551393397, 50.528978350179898 ], [ 7.068106808117038, 50.52879970058207 ], [ 7.06801552066453, 50.528740369059719 ], [ 7.067455900751321, 50.528338009163527 ], [ 7.066742303935697, 50.527854152507231 ], [ 7.066695197549453, 50.527882227662609 ], [ 7.062104430196326, 50.524898346024855 ], [ 7.061156820070046, 50.524338593918792 ], [ 7.061047098576618, 50.524273889326857 ], [ 7.059979977686946, 50.523645636303293 ], [ 7.059613561277239, 50.523431108327806 ], [ 7.059034733031896, 50.523094097121117 ], [ 7.058253297743081, 50.522644448459928 ], [ 7.058028671264609, 50.522516710514928 ], [ 7.050879047829653, 50.518851284402864 ], [ 7.05076547131416, 50.518798912461705 ], [ 7.038696666167649, 50.515591226252226 ], [ 7.037019900275582, 50.514733899715054 ], [ 7.033167623444585, 50.513807248230826 ], [ 7.032231386427299, 50.513280853121969 ], [ 7.031939663980588, 50.513490658771858 ], [ 7.026611082988608, 50.510441341739465 ], [ 7.025867462274331, 50.51011751478714 ], [ 7.024748758619019, 50.509638151559265 ], [ 7.023564809060812, 50.509139003952008 ], [ 7.02312572033011, 50.509560220300841 ], [ 7.012237444050854, 50.50469521320673 ], [ 7.006951708798201, 50.503637626975262 ], [ 6.998339050369694, 50.496051420096428 ], [ 6.998076716615138, 50.495857720822265 ], [ 6.997972545600812, 50.495780838081643 ], [ 6.994730040941471, 50.494060760948862 ], [ 6.994093623249595, 50.489866021638136 ], [ 6.995400098098004, 50.484204774274104 ], [ 6.993038256700464, 50.475592875538922 ], [ 6.993100486328514, 50.475326025964051 ], [ 6.98932472645058, 50.458851877655661 ], [ 6.988952015199589, 50.458059520268073 ], [ 6.988801458944929, 50.45773579821693 ], [ 6.988165975252459, 50.453798328447313 ], [ 6.9754586330607, 50.436506310825571 ], [ 6.954579045679635, 50.422871732502507 ], [ 6.95458360649357, 50.422867840207694 ], [ 6.954544889892491, 50.422849425217017 ], [ 6.954523778804171, 50.422835637472886 ], [ 6.95377768783437, 50.422488954568173 ], [ 6.953678589986777, 50.422575524310851 ], [ 6.948267774366753, 50.42095601769595 ], [ 6.941674926399545, 50.418206431292674 ], [ 6.941425195261632, 50.418114573834607 ], [ 6.939429641050385, 50.417401981276434 ], [ 6.938334308364988, 50.417022440020304 ], [ 6.936063144248923, 50.416297849403911 ], [ 6.936105123481118, 50.416239224880087 ], [ 6.935343925586856, 50.416017908974901 ], [ 6.934574880104774, 50.415823028637796 ], [ 6.932893352347548, 50.415286542676306 ], [ 6.932645584392605, 50.41521407247334 ], [ 6.92958332816308, 50.414361952201631 ], [ 6.929326896884649, 50.414294185672233 ], [ 6.925849791396065, 50.413517371916228 ], [ 6.917932379559324, 50.408664765305183 ], [ 6.908909039850203, 50.406106210111204 ], [ 6.908800713843517, 50.406049374209573 ], [ 6.908244457111704, 50.405813224790521 ], [ 6.898647509907748, 50.402263629878313 ], [ 6.898344328458339, 50.402166918855372 ], [ 6.88898194341503, 50.399592805200392 ], [ 6.888652503991737, 50.399516044810916 ], [ 6.880297060162337, 50.397913328962808 ], [ 6.880832298372177, 50.397487294983911 ], [ 6.890787954736312, 50.38038634144381 ], [ 6.891540207328704, 50.366902692389473 ], [ 6.892247326480867, 50.366893411405478 ], [ 6.89222460494122, 50.366189038499186 ], [ 6.891694447732682, 50.364137557867139 ], [ 6.891805302273519, 50.362150120994613 ], [ 6.891781858885444, 50.362030480121483 ], [ 6.891570341387619, 50.360952794302094 ], [ 6.890885598983684, 50.361007489844212 ], [ 6.888065604582153, 50.350093112894875 ], [ 6.887836802062103, 50.349631276098243 ], [ 6.887560554315105, 50.347725662628875 ], [ 6.878655428262881, 50.333002247663437 ], [ 6.863797734682187, 50.320382677285053 ], [ 6.844113337112748, 50.310825225939972 ], [ 6.841218189634523, 50.309786096964118 ], [ 6.813342542848804, 50.303361475867753 ], [ 6.800257232776482, 50.3032368822103 ], [ 6.792649213560575, 50.302409231169293 ], [ 6.792391522441847, 50.302331952012388 ], [ 6.791554701677042, 50.302082185415209 ], [ 6.76874055159797, 50.297910363074777 ], [ 6.768325259455793, 50.297756969673493 ], [ 6.762989394719117, 50.296421270593058 ], [ 6.748912948722316, 50.288154976665631 ], [ 6.724822480832079, 50.280812195745597 ], [ 6.69841890188778, 50.278316186056735 ], [ 6.672033156820155, 50.280888055731957 ], [ 6.647994616160327, 50.288299977134841 ], [ 6.646785519323084, 50.289016501603989 ], [ 6.633861882416629, 50.287933932167583 ], [ 6.632157100292231, 50.287987945212343 ], [ 6.627496094912761, 50.288213418475287 ], [ 6.627390752316979, 50.288220279581509 ], [ 6.603959280832863, 50.291822519926903 ], [ 6.582870013533484, 50.299274264596292 ], [ 6.578848187363677, 50.301786967092546 ], [ 6.578380910988534, 50.301941240737307 ], [ 6.577305319640807, 50.302445472630502 ], [ 6.574693348146693, 50.304263152085753 ], [ 6.568658443278585, 50.306356456538801 ], [ 6.56587807065125, 50.308268708913737 ], [ 6.557715071501934, 50.304362995738728 ], [ 6.555655416426743, 50.303950344787026 ], [ 6.552386368652228, 50.30148322088386 ], [ 6.547628490506822, 50.297439408719804 ], [ 6.547563038568531, 50.297398648324155 ], [ 6.52429219819649, 50.286928235816937 ], [ 6.515467980751183, 50.285212505489248 ], [ 6.515731850488645, 50.284770472766603 ], [ 6.515653172371153, 50.284751297064865 ], [ 6.500954243349828, 50.282390402935576 ], [ 6.497062283069418, 50.281633607928846 ], [ 6.4959237705996, 50.28153382414034 ], [ 6.495913692442283, 50.281580779092572 ], [ 6.495116482113481, 50.281452728238719 ], [ 6.494798679563726, 50.281426565734542 ], [ 6.48863368860103, 50.281444756137219 ], [ 6.487474085506595, 50.281344852036739 ], [ 6.474564345162888, 50.274508252445216 ], [ 6.474371224497225, 50.274428873694298 ], [ 6.450533308806056, 50.267526794399245 ], [ 6.424594590343466, 50.265308663595853 ], [ 6.424347474079203, 50.265310747391972 ], [ 6.415236176913078, 50.265684183046375 ], [ 6.414972386351506, 50.265703638230995 ], [ 6.413539989382328, 50.265832615130968 ], [ 6.405851216, 50.265660067482429 ], [ 6.405735277977874, 50.265663063395074 ], [ 6.400817445735013, 50.26608564378801 ], [ 6.391340009536528, 50.266662573634711 ], [ 6.390678412315458, 50.266734153877209 ], [ 6.386975436500839, 50.267186070682591 ], [ 6.386837238842926, 50.267204865746365 ], [ 6.382644920582218, 50.268209744697053 ], [ 6.382459943732048, 50.268241752123494 ], [ 6.382169897010805, 50.268299487316767 ], [ 6.381557555420101, 50.268422912761054 ], [ 6.380472059859246, 50.268644437020029 ], [ 6.380510478875423, 50.268721352179789 ], [ 6.361843793536933, 50.273195363316631 ], [ 6.340707773815985, 50.283613802261627 ], [ 6.325295380761779, 50.297537759326801 ], [ 6.318311844546299, 50.311120917282963 ], [ 6.304325612069318, 50.317700917231129 ], [ 6.303270410925136, 50.318379799941262 ], [ 6.298220901249941, 50.322833689532374 ], [ 6.297580414139833, 50.323207940037037 ], [ 6.296662335435566, 50.324208328835049 ], [ 6.287001484972688, 50.332728214344336 ], [ 6.285116553145958, 50.336402205017116 ], [ 6.271737425597351, 50.344985254961706 ], [ 6.259878263519173, 50.358417640194155 ], [ 6.259456010376224, 50.35909577209339 ], [ 6.253637812266113, 50.37404739493283 ], [ 6.254274447670225, 50.389442459648038 ], [ 6.254367374523765, 50.389806815297348 ], [ 6.263929671386046, 50.407751762930637 ], [ 6.264730738767833, 50.408700457109653 ], [ 6.264978045886201, 50.408994636702481 ], [ 6.265475484612408, 50.409600953438179 ], [ 6.265781916291828, 50.409974436221965 ], [ 6.265987007713696, 50.410222916792925 ], [ 6.266562385169665, 50.410915884617211 ], [ 6.26719474180015, 50.411663981129067 ], [ 6.267874794055155, 50.41245438348075 ], [ 6.268942192483673, 50.413660140922822 ], [ 6.269153233049483, 50.41389193842079 ], [ 6.27732206953218, 50.421068418034075 ], [ 6.277320398242183, 50.421568544900161 ], [ 6.273338921531455, 50.424158153793734 ], [ 6.273035736552671, 50.424379101122959 ], [ 6.267636736252546, 50.428720712911478 ], [ 6.267375063678821, 50.428953435973582 ], [ 6.258351957680985, 50.441509491238435 ], [ 6.240734003734278, 50.437879697562941 ], [ 6.212986169516995, 50.437831338092352 ], [ 6.186538904291254, 50.443178477133451 ], [ 6.184650840206681, 50.443777887729475 ], [ 6.170641132280602, 50.449300499619923 ], [ 6.170531422192115, 50.449353181995136 ], [ 6.170402936050705, 50.449414889543412 ], [ 6.157897761573388, 50.45804506993781 ], [ 6.151629905465447, 50.461695839073563 ], [ 6.150448937519211, 50.462619616157504 ], [ 6.149177801965781, 50.464062033106508 ], [ 6.148659927392131, 50.464419353827935 ], [ 6.147466647359345, 50.465615654923937 ], [ 6.146779542294648, 50.466301032003358 ], [ 6.146263071744787, 50.466822371934832 ], [ 6.145447798163389, 50.467655235437988 ], [ 6.145865210107287, 50.467820779272607 ], [ 6.139650919769116, 50.474871231378771 ], [ 6.137018943392532, 50.475781292087532 ], [ 6.11723561129451, 50.489352979142716 ], [ 6.116378848007841, 50.490175609245043 ], [ 6.114034231168758, 50.492551382919572 ], [ 6.113776783743908, 50.492827043715494 ], [ 6.11124725839869, 50.496160507352627 ], [ 6.108907304343243, 50.49809170677905 ], [ 6.099617754771122, 50.51337795972983 ], [ 6.099363803019296, 50.51536775514262 ], [ 6.091939028766578, 50.525359761554562 ], [ 6.088725677751974, 50.540682500117697 ], [ 6.085129107645655, 50.548328248428412 ], [ 6.085265616225895, 50.558768850623068 ], [ 6.084491610839158, 50.558782120720814 ], [ 6.084500832742671, 50.558999205012661 ], [ 6.085252937887818, 50.564986324344972 ], [ 6.085260021847277, 50.565020142336351 ], [ 6.085350401866456, 50.565252356910719 ], [ 6.085351235705582, 50.565316115651676 ], [ 6.085573595729343, 50.56620432410665 ], [ 6.08571534802452, 50.566190006244703 ], [ 6.089997219855989, 50.577189945738425 ], [ 6.090013985165094, 50.577218891778365 ], [ 6.094993920344963, 50.584292037915503 ], [ 6.095330721583125, 50.584694529158874 ], [ 6.104307674430991, 50.592560922251778 ], [ 6.097905403247749, 50.598017908403129 ], [ 6.089224606387314, 50.611947577178398 ], [ 6.089022353960368, 50.612461158429696 ], [ 6.088733397032247, 50.613172818303269 ], [ 6.088258984960922, 50.616013032601572 ], [ 6.087694303722543, 50.616487798353141 ], [ 6.087678960568995, 50.616505812588763 ], [ 6.087536260269553, 50.616674028533808 ], [ 6.087516551707461, 50.616697354632819 ], [ 6.078428786544517, 50.633009509536286 ], [ 6.07780355771738, 50.6443457281013 ], [ 6.072753165108709, 50.647485799413005 ], [ 6.072360034309725, 50.64788331020582 ], [ 6.070949074626507, 50.649359175408136 ], [ 6.070878712816507, 50.649435352708025 ], [ 6.070604052876424, 50.649958359006284 ], [ 6.065828980365088, 50.653652661842898 ], [ 6.060647135972306, 50.662973316886216 ], [ 6.058786448909514, 50.662628382492983 ], [ 6.058151053168277, 50.662546685067873 ], [ 6.05486648571208, 50.66216450984151 ], [ 6.054446457777539, 50.662120736476851 ], [ 6.03565175814918, 50.661429332934304 ], [ 6.035478524619295, 50.6614344991861 ], [ 6.013476682423929, 50.663851816492048 ], [ 5.993095172380125, 50.669633854841351 ], [ 5.992831947631886, 50.669735097334026 ], [ 5.980847038907874, 50.675355494993191 ], [ 5.980817664526165, 50.67533281588986 ], [ 5.980542932602427, 50.675475717715834 ], [ 5.980295201132341, 50.675614266552479 ], [ 5.979621373319678, 50.675930240583135 ], [ 5.978933255642619, 50.676319421240969 ], [ 5.978073549970246, 50.676811993367025 ], [ 5.977135940833096, 50.677356201872939 ], [ 5.977155850679849, 50.677369976377747 ], [ 5.975723418356783, 50.678171055149022 ], [ 5.975566671858918, 50.678265245770341 ], [ 5.969014235560421, 50.68264318974451 ], [ 5.968424995436643, 50.683081191962934 ], [ 5.969033710862578, 50.683409948178067 ], [ 5.958970107068772, 50.691538444391853 ], [ 5.95136761276751, 50.70349539233046 ], [ 5.949980839834665, 50.704990118351944 ], [ 5.943811287288532, 50.721364743468726 ], [ 5.94372781586279, 50.721980030127163 ], [ 5.943687823423412, 50.724928021138517 ], [ 5.94320502071938, 50.725445453070826 ], [ 5.943126725086182, 50.725533133171901 ], [ 5.935025228252449, 50.7377348170426 ], [ 5.934797996871466, 50.738232678852761 ], [ 5.934688908269726, 50.738473680900405 ], [ 5.934632271123083, 50.738599855185704 ], [ 5.932700292729032, 50.743833249701964 ], [ 5.932537044251327, 50.744393888495246 ], [ 5.932325315679164, 50.745149604716275 ], [ 5.932245569700846, 50.745445858698247 ], [ 5.932173764780807, 50.745693958188433 ], [ 5.931732282342692, 50.746739230071675 ], [ 5.931546052162164, 50.747334800834047 ], [ 5.931414294148198, 50.747805953311158 ], [ 5.925319144257929, 50.750518137152163 ], [ 5.923586554093487, 50.751104191534978 ], [ 5.922617844346791, 50.751720095400209 ], [ 5.919909660494598, 50.752925085715098 ], [ 5.916807158777094, 50.755164065968692 ], [ 5.91651349114071, 50.754957844319605 ], [ 5.915416334336663, 50.755583157611582 ], [ 5.915826901505306, 50.755871465285487 ], [ 5.915247746277585, 50.756289405655686 ], [ 5.904092030707883, 50.763067671811193 ], [ 5.891417320872602, 50.777028497473857 ], [ 5.885443471944821, 50.792672374487594 ], [ 5.886045654793327, 50.800692608946555 ], [ 5.88581573301394, 50.800691434444275 ], [ 5.885805896834341, 50.801460583825801 ], [ 5.886310574811685, 50.805871344379668 ], [ 5.886047750302966, 50.805889202159641 ], [ 5.886155929310504, 50.806525035744727 ], [ 5.886340628324437, 50.807410557801902 ], [ 5.88633338924387, 50.807411229844789 ], [ 5.886405176391264, 50.807720023481629 ], [ 5.886664240169445, 50.808962043899456 ], [ 5.886844869205836, 50.810540491336383 ], [ 5.886876953500681, 50.810672442290141 ], [ 5.886950416960487, 50.810974497541892 ], [ 5.893306142786576, 50.824078327658938 ], [ 5.893167052271568, 50.824112058580312 ], [ 5.893474630611951, 50.824618173233198 ], [ 5.8938293961357, 50.82515697422695 ], [ 5.89454927589074, 50.826640910294358 ], [ 5.894819248992174, 50.827001072586519 ], [ 5.898619366759033, 50.831529515934847 ], [ 5.89889893475095, 50.831829111509677 ], [ 5.899890109105515, 50.832865820407122 ], [ 5.900632031138002, 50.833623419400453 ], [ 5.90098071635685, 50.833487210449768 ], [ 5.904882537503441, 50.838222722983666 ], [ 5.905929892841372, 50.839248435964521 ], [ 5.905930677216773, 50.839248116559823 ], [ 5.906296631573339, 50.839759599040008 ], [ 5.921193188755598, 50.850092754355053 ], [ 5.920797255995438, 50.850354316929341 ], [ 5.921355242465132, 50.850690988752419 ], [ 5.922113941540822, 50.851143465846881 ], [ 5.922187195464002, 50.851186647562599 ], [ 5.923052073527716, 50.851696469525031 ], [ 5.924483244668735, 50.852374628084782 ], [ 5.925212102179338, 50.85288012439127 ], [ 5.925538233862291, 50.853045021320504 ], [ 5.925777364137483, 50.853165928135375 ], [ 5.926951658739517, 50.85374960342407 ], [ 5.927881470233533, 50.854203896134948 ], [ 5.928051349137723, 50.854065326752121 ], [ 5.929719969016474, 50.854855958973246 ], [ 5.929860812627567, 50.85519968982598 ], [ 5.930072885928471, 50.855717242825278 ], [ 5.930650874242956, 50.857168133593412 ], [ 5.931136257817707, 50.858387293367954 ], [ 5.931410997761562, 50.859079458404828 ], [ 5.931572846178924, 50.859489577608663 ], [ 5.932034028843457, 50.860609349029254 ], [ 5.932237747643754, 50.861084037131313 ], [ 5.942417239091074, 50.87595151074175 ], [ 5.958842391145521, 50.888392161304658 ], [ 5.96352750692601, 50.89036929710138 ], [ 5.950292323753649, 50.897626096702552 ], [ 5.93657158332523, 50.911059863151358 ], [ 5.932052445746813, 50.920635689728769 ], [ 5.918212398541247, 50.918600263072811 ], [ 5.918078588406209, 50.918587550652923 ], [ 5.902884278224438, 50.917966718168039 ], [ 5.900618976780852, 50.917995467988256 ], [ 5.895068749620091, 50.918281167260645 ], [ 5.895065019273557, 50.918242082902147 ], [ 5.892532291833708, 50.918338156921187 ], [ 5.892475593329471, 50.918340057767189 ], [ 5.891728044863086, 50.918368208190614 ], [ 5.891283865677338, 50.918435225227583 ], [ 5.890787403535742, 50.91846912424387 ], [ 5.890792925469353, 50.918501265136669 ], [ 5.88964157678202, 50.918560530586092 ], [ 5.888677489939167, 50.918647924269358 ], [ 5.888717299817328, 50.918822462642268 ], [ 5.861263793636026, 50.922964381431704 ], [ 5.835155111633149, 50.933873421017445 ], [ 5.816576660407399, 50.949765038099095 ], [ 5.815905589434194, 50.951211255065743 ], [ 5.814091414604023, 50.953519885340356 ], [ 5.811876603846619, 50.955478179556231 ], [ 5.803463498473774, 50.973254513382777 ], [ 5.804287589524075, 50.986328936747441 ], [ 5.802443270945837, 50.988135689319726 ], [ 5.802380977434483, 50.988199415062361 ], [ 5.800386670352528, 50.990343695006729 ], [ 5.80032893211356, 50.990409024732159 ], [ 5.798489715466021, 50.992601855740894 ], [ 5.798436704791681, 50.99266855984208 ], [ 5.796738476123525, 50.994928999841768 ], [ 5.796690362895307, 50.994996884646078 ], [ 5.795142013907812, 50.997319139501244 ], [ 5.795098956188046, 50.997387975054181 ], [ 5.793704088602117, 50.999773914164621 ], [ 5.793666198731676, 50.999843514310179 ], [ 5.792427660834994, 51.002299747110321 ], [ 5.79239505115665, 51.002369925707484 ], [ 5.791324661697168, 51.004887469794227 ], [ 5.79129741729109, 51.004958022017128 ], [ 5.790447986849856, 51.007389906614947 ], [ 5.790428225339137, 51.007453088473007 ], [ 5.789817441219478, 51.009642284258533 ], [ 5.789242379814991, 51.01075831002521 ], [ 5.789215464977365, 51.010815754759797 ], [ 5.788170299191645, 51.013244491169566 ], [ 5.788150985363979, 51.013293687376866 ], [ 5.787385697488704, 51.015418043919588 ], [ 5.787369100925249, 51.015468615246235 ], [ 5.787047214534011, 51.016497541459557 ], [ 5.786870609049853, 51.01709107272287 ], [ 5.786783380359294, 51.017380820690342 ], [ 5.786744097236411, 51.01751215623959 ], [ 5.786348529218201, 51.018843299986571 ], [ 5.786318729780666, 51.018943817202597 ], [ 5.7863438308716, 51.02179882406007 ] ] ] ] } }
]
}
