{
"type": "FeatureCollection",
"name": "regbez25kmbuffer",
"crs": { "type": "name", "properties": { "name": "urn:ogc:def:crs:OGC:1.3:CRS84" } },
"features": [
{"type":"Feature","properties":{"fid":1,"ART":"R","GN":"Köln","KN":"05300000","STAND":"2025-11-12"},"geometry":{"type":"MultiPolygon","coordinates":[[[[5.52712191339288,50.980054830459743],[5.523707074761155,50.986983439273637],[5.523668629719105,50.987070994012626],[5.518796004405001,50.999538802160693],[5.518754768267706,50.999658954389808],[5.513111574248905,51.021028956440944],[5.512681614895572,51.023338349757914],[5.512612866983586,51.023710259016497],[5.512423700031738,51.024741037971239],[5.512143156585589,51.026318404477699],[5.51202757202574,51.026989645844672],[5.511973304584078,51.027306887801849],[5.511906374249162,51.027700771889677],[5.51722334730952,51.097002302988493],[5.555928652744148,51.161969878023292],[5.55634910766744,51.162438164514555],[5.627394507241013,51.218299330108117],[5.722946542934462,51.25723529599135],[5.727923930467093,51.258050798537724],[5.735057557793648,51.261639572548418],[5.828633683990554,51.284406162821796],[5.830042252331358,51.285430146122813],[5.890714069132365,51.335347321944838],[5.979610533847006,51.374618426476339],[5.984013802792929,51.375989364104051],[5.987694835518015,51.377135234425388],[5.991722189616427,51.37838873180629],[5.996460229550168,51.379866737054016],[5.997383763276808,51.38015375979338],[6.001354401903702,51.381383217036181],[6.002979265280393,51.381886277017358],[6.005150305314989,51.382558315744994],[6.005420641524359,51.382647406528896],[6.007627104743645,51.38337451238867],[6.022195552614244,51.387912940437452],[6.022678143907854,51.388054788842148],[6.120250987362271,51.406670308615318],[6.162591654432503,51.406937803021044],[6.174236958762357,51.409697104534018],[6.278492070024442,51.414234041568527],[6.313803954275989,51.40921782371764],[6.323129937054874,51.408502772713042],[6.323199553375329,51.408494955967612],[6.356009938501614,51.403804151295667],[6.356078456854705,51.403792207029923],[6.36588974399191,51.401797232031647],[6.380384748310847,51.399727575416762],[6.386857419266949,51.39742832632583],[6.410895241737772,51.391138528677885],[6.410965587157385,51.391118066672774],[6.432930531013094,51.384143001141446],[6.433003638019793,51.384117765836301],[6.44120869707418,51.381196362228749],[6.442591518302438,51.380688742950532],[6.448978383061193,51.378287744267723],[6.450171890650252,51.377828391701534],[6.451056257542528,51.377486901264213],[6.463433544033083,51.372456743062287],[6.473825682087814,51.368765110703407],[6.473897321359237,51.36873852338379],[6.484758701085465,51.364541535736031],[6.484831200256505,51.364512388038293],[6.494686066194622,51.360404253579553],[6.494759835779644,51.360372383874825],[6.503190891434259,51.356615938293118],[6.503258042952591,51.356585091378598],[6.511594298331864,51.352636880278069],[6.512453442949876,51.352217443343903],[6.519167245082345,51.348857532634916],[6.519302359470036,51.348788229125724],[6.529658798873523,51.343266344562011],[6.52977670742681,51.343201010109333],[6.5398608080689,51.337393408855803],[6.539909789746894,51.337364093070605],[6.553181432501894,51.328990196685318],[6.553218818545215,51.328965327816881],[6.564936537115134,51.320573137410811],[6.565087147564066,51.320503421516719],[6.565251967867257,51.320347167319504],[6.570514810827681,51.316576480191372],[6.570545662943313,51.316552666447414],[6.589760465309709,51.300266055420238],[6.5897854903044,51.300242701297762],[6.594197047215156,51.295526327579836],[6.598913755885466,51.294620902331523],[6.643362557629418,51.277089111100238],[6.683019076555317,51.286267027599557],[6.695265187448784,51.286602197921624],[6.713499395159874,51.293242322267631],[6.713653829560294,51.293280054455217],[6.723084522941636,51.295488586189578],[6.724844986236785,51.295883183798566],[6.726893671093231,51.296337956450458],[6.727388642051255,51.296446767250558],[6.727692091898578,51.296513472363948],[6.728081708672405,51.296598959567419],[6.729482915730335,51.296905822489151],[6.737474381428116,51.298589714873366],[6.73889118076244,51.298876601974492],[6.792958062752303,51.304544664254898],[6.800001259410688,51.307874586352597],[6.801369407376794,51.308463021066757],[6.813746805521457,51.312038699537368],[6.814450691560288,51.31235953122458],[6.814568658692826,51.312411854008367],[6.821169822924587,51.315270423145748],[6.821280434076513,51.315317179093206],[6.829331212685153,51.318622144592631],[6.829451204552916,51.318669965955166],[6.838244778826164,51.322063531824632],[6.838366210739978,51.322108888310481],[6.847437092961401,51.325384926449551],[6.847559823259722,51.325427760991168],[6.856925215813266,51.328582777361497],[6.857049130985013,51.328623042406733],[6.86493143014616,51.331107329864459],[6.86815996063737,51.332093668992073],[6.868166970191322,51.332084664283862],[6.870757674882574,51.332881226892418],[6.87089508120388,51.332922387938176],[6.881155735360256,51.335872052946165],[6.881460811868828,51.335956120844983],[6.905385637199889,51.34191352507559],[6.905558569566505,51.341952123821166],[6.922009841802846,51.345344724606761],[6.922090315128393,51.345359975237642],[6.937423184367981,51.348033627095347],[6.93749757264229,51.348045486347949],[6.939818593969346,51.34837830760906],[6.947358002040024,51.349761615372259],[6.94743018803477,51.349773060951215],[6.965830941891411,51.352368859510435],[6.965906489353707,51.352378211641444],[6.983236791721632,51.354247214699974],[6.983316126926902,51.354254516374631],[6.985576730639104,51.354430445731694],[6.991728184114526,51.355597622357948],[6.991783101485616,51.355606657910506],[7.002498359034989,51.357093791393325],[7.01442884723894,51.366419585376946],[7.035785515515481,51.387048329517647],[7.03722244041294,51.388141698271014],[7.048130020358441,51.396056641494333],[7.0481997855828,51.396104936322224],[7.068210727494282,51.408889739033839],[7.06824513135368,51.408910027902166],[7.089510029795595,51.420494404443041],[7.089542305225358,51.420510632357555],[7.11825808001388,51.433536792456565],[7.118289592488251,51.433549645698754],[7.155198706831705,51.446719743833476],[7.16585633098251,51.449515195074007],[7.170554798289848,51.451582602543361],[7.170971869970546,51.451710262688685],[7.202318244631154,51.4601715190107],[7.204417093348613,51.460665223397356],[7.216887575568187,51.463435140101012],[7.216941954423315,51.463446515737566],[7.217514806143293,51.463566082072383],[7.241381302727095,51.467973501032866],[7.241491154898708,51.46799121889017],[7.264787650079843,51.471235481690265],[7.285242052353021,51.473260432241744],[7.287538884893563,51.473445449155136],[7.308994430708582,51.474764927063504],[7.309057058636511,51.474767592906659],[7.343820926305322,51.475190883688043],[7.343884717518644,51.475189725481741],[7.366704741701248,51.474319498933077],[7.366791897605078,51.474314427241289],[7.375244412932777,51.473759310250216],[7.375543218334513,51.47373744419928],[7.392427383501739,51.472246600113905],[7.402185555570724,51.470606598206658],[7.408482997975464,51.470996446459019],[7.422116559798318,51.469267619064325],[7.427240564763825,51.469287131190569],[7.437339563815654,51.467335205555557],[7.467382198455195,51.463515284523567],[7.468113774082529,51.463454160959138],[7.468170820435104,51.463446597278661],[7.468811801826845,51.463333302036503],[7.513507767425648,51.457634141574772],[7.515197281955385,51.45724747409794],[7.549704264826646,51.448041061006556],[7.549885105415213,51.447985638634876],[7.551246818460166,51.447566069887166],[7.551953002475365,51.447347313413509],[7.590329879440279,51.430577510808895],[7.610386889297902,51.424210309266805],[7.610504924267432,51.424156639026229],[7.636991515862616,51.410153682201965],[7.639811912547125,51.408918003732602],[7.640739593958634,51.408170958654608],[7.65047630278348,51.403018890336796],[7.651888435357787,51.402153562503486],[7.658720426076174,51.397851829750614],[7.65879949156312,51.397800677555004],[7.660049807331944,51.396915406206212],[7.660897716952376,51.396467954895222],[7.672206013114379,51.390240451049209],[7.710356919840218,51.364598409221102],[7.746094123703723,51.330467563279214],[7.764770659625223,51.303253078948352],[7.799106802292519,51.300307469128427],[7.812168775810798,51.295990565864422],[7.81253256277418,51.296632348040148],[7.813207400371651,51.296481992698986],[7.825877864878929,51.291457341720637],[7.852680154141225,51.282587290698281],[7.856218753185575,51.281619221212281],[7.857346236321928,51.281294038762802],[7.857573307148121,51.281192116564874],[7.877892558683644,51.276083347118337],[7.889047138893393,51.270536492873447],[7.909108264694481,51.263881330625203],[7.912127503737444,51.262408156988322],[7.909554561284265,51.260332427959796],[7.930791070486196,51.249756965979238],[7.946749213370548,51.243399042886558],[7.948045309005197,51.242581019345977],[7.953851077291668,51.238263492056632],[7.958662245300348,51.235864224258009],[7.958942816997961,51.235677051415863],[7.959210218136736,51.235481480403998],[7.967399685010411,51.231790464081648],[7.969799020206817,51.230198991765342],[7.978243695724974,51.224396443817334],[7.979874078276451,51.223235811119423],[7.986642060214524,51.218273403659325],[7.987532780000048,51.21760065364483],[8.011297835395292,51.197452935230466],[8.011728689432438,51.197041284432963],[8.036008953566721,51.156828902821267],[8.03887030069636,51.154651179050532],[8.046531372304907,51.142302168605504],[8.050160811526625,51.138645565880701],[8.051518561137732,51.135690985781451],[8.056753101223409,51.130312322848617],[8.058881267964475,51.127102102735066],[8.056364481752235,51.126441455975446],[8.061663181227493,51.117889779913597],[8.064288281033914,51.118529288397283],[8.064316335526041,51.118483668764519],[8.068055258438665,51.111485612428993],[8.076274379396233,51.105832682788517],[8.121632114107111,51.045691845298265],[8.12165349670877,51.045647420443565],[8.125597910428091,51.036804346371106],[8.126429167717452,51.034782618813438],[8.127338200361056,51.032563716333534],[8.128035268598932,51.029727631732399],[8.12824938092052,51.029261811750366],[8.128343347977724,51.029039575388026],[8.128475730337298,51.028699000022186],[8.12870284536683,51.028328997346463],[8.128769823930552,51.028178482779467],[8.130333150284804,51.023919928915248],[8.131769812646363,51.020222742693818],[8.131881137293284,51.019908951800808],[8.13219201935998,51.019024281184592],[8.132286885678644,51.018751715988657],[8.132764593952299,51.017294967986949],[8.133649579654584,51.014883153652036],[8.13526394509867,51.01255220161508],[8.136081773818422,51.008253445779125],[8.13617261578344,51.008005789122464],[8.136228925774779,51.007812035057178],[8.141294910105929,50.982076038011407],[8.141319115225006,50.981844302257578],[8.141529263317137,50.979598612117982],[8.14762067781248,50.947512952614069],[8.130524117670282,50.885682950092793],[8.130029291587569,50.883017486189907],[8.129709623198293,50.882539186293016],[8.129367928714398,50.88093921455792],[8.122812443566721,50.872216783388168],[8.118453241423733,50.865690201798138],[8.121505106375885,50.852021106765413],[8.110346382203273,50.814367087979456],[8.106230203207458,50.788434894915895],[8.062670912868805,50.724812602600998],[7.990761448547384,50.67260642587776],[7.986200126475513,50.67085782668201],[7.986197884364043,50.670853343294183],[7.986065774534763,50.670705693404656],[7.950752869701051,50.638221882958717],[7.950595609443114,50.638101304776839],[7.950312362246974,50.637884377733251],[7.912606742374008,50.613137509755468],[7.912461907582464,50.613055936510641],[7.909756643520358,50.611683169416501],[7.908077318552253,50.610482878110425],[7.906923656756771,50.609772370734966],[7.905295955280207,50.608776252143777],[7.904570567628342,50.608335140793841],[7.856350947238025,50.583745127811554],[7.854899225814052,50.583128659845478],[7.850420831315987,50.581838591465136],[7.840888588131382,50.576566243383624],[7.821647140975041,50.571594926642852],[7.815266203773525,50.567075763922006],[7.815180889138038,50.567031726972402],[7.793528919582373,50.55670120298393],[7.793454229428279,50.556668322076519],[7.79330053974961,50.556600699814112],[7.776364779002895,50.549985945510961],[7.775882246595308,50.549753551504082],[7.775711422258222,50.549683674056794],[7.77523859500424,50.549545929112682],[7.760585364815316,50.543818966395328],[7.757816880429703,50.542864560935087],[7.750594116720668,50.540442509649665],[7.746386323629348,50.539070541444396],[7.745042928230013,50.540743646968444],[7.684998569252389,50.523207311699103],[7.684896822088201,50.523188085039216],[7.656124651908295,50.518576921268824],[7.652712585504736,50.518125929378677],[7.641170326450322,50.517776063552482],[7.614537498718991,50.494564732255547],[7.614035733418135,50.494226438143599],[7.606928558976862,50.489570663150758],[7.606066825862668,50.489022156868998],[7.566762111386967,50.467427277389945],[7.566537048720297,50.467320895975782],[7.531351579254604,50.452669511326967],[7.530607173174458,50.452398300380992],[7.512483453687405,50.446233152675269],[7.51106551827087,50.445784026747766],[7.507053269472483,50.444533204543532],[7.504654477956845,50.443797274430374],[7.502452961029936,50.44314897483919],[7.479107519355043,50.432966152399757],[7.43446327840338,50.425846872406034],[7.422548737188811,50.421584970982693],[7.419667308555082,50.420886058978425],[7.401608956363181,50.416859104867832],[7.400826184242534,50.416699584365865],[7.395040541662485,50.415567680531822],[7.393856059243081,50.41520714099709],[7.389794828151678,50.414381370265552],[7.389710287679843,50.414551110000687],[7.387052638563539,50.414052504088836],[7.386513580676971,50.415225526332762],[7.377878959909124,50.413123695035019],[7.378187338423753,50.412467953686559],[7.376117091144886,50.412070402320253],[7.368849289082121,50.410728692805968],[7.365893064272729,50.410204734280029],[7.363500655944319,50.409621913934977],[7.362591829803296,50.409484285488013],[7.36093422303957,50.409235950717232],[7.360449310224533,50.409164089112394],[7.356517066489426,50.408677664069167],[7.354512548314962,50.408213459692412],[7.354386567122432,50.408193689148661],[7.350574337945728,50.407819906647084],[7.350116777947248,50.407696960031942],[7.346264715243779,50.407055478964274],[7.346130724706372,50.407384053233606],[7.345814987080705,50.407353077243997],[7.335110173597847,50.406027095641342],[7.33100009031017,50.405617059837901],[7.330932914841776,50.405892029579142],[7.316158311303783,50.404439564126271],[7.250465822664792,50.387144464037689],[7.21615055175141,50.375599769239514],[7.190501096348234,50.340859663622567],[7.141845545424123,50.309136813786189],[7.14181662181526,50.308946249211331],[7.13915140837577,50.304588950872606],[7.138224737400138,50.301584303973833],[7.135391994703521,50.2957030152917],[7.133898239107076,50.295998199258648],[7.106571646636406,50.251257025475709],[7.04820317138308,50.201901019587062],[6.9711729139305,50.164596929519547],[6.968285676694498,50.163563221260596],[6.861441407162178,50.138802556808763],[6.8601163462812,50.13878487485308],[6.789048554289463,50.11853285972677],[6.680086941238029,50.111236195021867],[6.605330731735004,50.121466523972956],[6.601230639333771,50.121664637112886],[6.601125785776135,50.121671465133645],[6.583502516756591,50.124386524694565],[6.521856662379811,50.106559907218795],[6.464988210980949,50.101715221040465],[6.448124819884486,50.099623735583435],[6.447918482238673,50.099609122530772],[6.437737468420829,50.099383503386719],[6.421163155875858,50.097962085743745],[6.420917198954919,50.09796417514611],[6.404470131065348,50.098640034099816],[6.395385306880867,50.098435342545521],[6.395269912327932,50.09843832933452],[6.366322200050924,50.09996105477925],[6.363304059038099,50.100200965937248],[6.348152653212688,50.101621541321983],[6.34749405448458,50.101692754761373],[6.333121674439715,50.103445540217017],[6.33298408914775,50.10346423711237],[6.235610348500131,50.126802016315537],[6.153081857771598,50.167451645360366],[6.092658742142974,50.22185710071313],[6.091347038232978,50.224384963049943],[6.090321246411293,50.225294523019372],[6.08305354581436,50.230310884216529],[6.08273133605877,50.230559367320836],[6.079265153023438,50.233275064890094],[6.078901771111179,50.233564323384797],[6.076961788553798,50.235248734248366],[6.064137767254308,50.243441218035976],[6.017444394369009,50.295956525910086],[6.017018345256504,50.296633109278687],[6.008179557579089,50.318959422942314],[5.983659947416879,50.335814171665263],[5.980752765891891,50.333842002890457],[5.979551825877303,50.334567211325279],[5.94915788038706,50.355392260229472],[5.947975403944306,50.356312555504957],[5.937872770277479,50.367241434676501],[5.928240669293928,50.373844936778497],[5.926243549930027,50.375829992369631],[5.927616856871254,50.376395043058494],[5.899305898300755,50.396193193048873],[5.898446503499895,50.397013078969586],[5.889182862019815,50.406336088632855],[5.888924345458478,50.406610894040341],[5.882492444067547,50.413984166571325],[5.880868215905926,50.41531641302408],[5.879775783121281,50.417097616480909],[5.877690423514375,50.419487228089828],[5.874907195024102,50.422937517806716],[5.875977296274386,50.423289852346102],[5.853573103990612,50.459775934615131],[5.840368947237905,50.477397740503001],[5.834904371228116,50.502658290141596],[5.825815566521604,50.52118531706342],[5.825330828262794,50.540785066981812],[5.804943221863913,50.550313840101147],[5.804255748216142,50.550701301884914],[5.803974839064904,50.55085978968399],[5.802763617758328,50.551543868234283],[5.79516595507423,50.555961856376463],[5.795009297886484,50.556055641155709],[5.77347890508777,50.570117200876126],[5.772847196620604,50.570567370330878],[5.746492070532916,50.598141635597123],[5.734555870993896,50.606087863632133],[5.733680571674096,50.606973393652893],[5.718187320201576,50.627711863698835],[5.706072645862153,50.640354312530654],[5.704396586972117,50.646153698774775],[5.697994943407915,50.654708707943215],[5.694437419238475,50.665405912112739],[5.666100942008786,50.688047774520911],[5.627239355840498,50.754485166312676],[5.622867488961171,50.825299308878535],[5.623600849648221,50.829176846195026],[5.624758161388025,50.834627892994114],[5.597307834299299,50.854186856539776],[5.595155094430169,50.857309769036078],[5.594475356208407,50.85796962642781],[5.55268629307951,50.914216053837826],[5.546735567407236,50.93720572460461],[5.53676325714592,50.955649482140544],[5.536705034603221,50.955775379345489],[5.533252032337251,50.963787902417266],[5.533203496458774,50.963909317944925],[5.530435284995444,50.971366364610866],[5.530327492048669,50.971680707180049],[5.52959251730247,50.973234076485106],[5.529560850001248,50.97331475485484],[5.52712191339288,50.980054830459743]]]]}}
]
}
